{
  "type": "FeatureCollection",
  "features": [
    {
      "type": "Feature",
      "properties": {
        "norad_id": 34481,
        "name": "COSMOS 2251 DEB",
        "group": "cosmos-2251-debris",
        "lat": -72.32814204132697,
        "lon": -80.90921823769258,
        "alt_km": 761.1474736516711,
        "timestamp": "2025-12-22T23:36:21.111085+00:00",
        "meta_object_name": "COSMOS 2251 DEB",
        "meta_object_id": "1993-036UA",
        "meta_epoch": "2025-12-22T04:13:14.565792",
        "meta_mean_motion": 14.32582929,
        "meta_eccentricity": 0.00703765,
        "meta_inclination": 73.979,
        "meta_ra_of_asc_node": 36.1685,
        "meta_arg_of_pericenter": 208.7649,
        "meta_mean_anomaly": 209.0545,
        "meta_ephemeris_type": 0,
        "meta_classification_type": "U",
        "meta_norad_cat_id": 34481,
        "meta_element_set_no": 999,
        "meta_rev_at_epoch": 87584,
        "meta_bstar": 0.00054870101,
        "meta_mean_motion_dot": 1.505e-05,
        "meta_mean_motion_ddot": 0,
        "tle_line1": "1 34481U 93036UA  25356.17586303  .00001505  00000+0  54870-3 0  9992",
        "tle_line2": "2 34481  73.9790  36.1685 0070376 208.7649 209.0545 14.32582929875847"
      },
      "geometry": {
        "type": "Point",
        "coordinates": [
          -80.90921823769258,
          -72.32814204132697
        ]
      }
    },
    {
      "type": "Feature",
      "properties": {
        "norad_id": 34482,
        "name": "COSMOS 2251 DEB",
        "group": "cosmos-2251-debris",
        "lat": -14.32483989693146,
        "lon": -160.43685450101782,
        "alt_km": 663.6542673383292,
        "timestamp": "2025-12-22T23:36:21.111095+00:00",
        "meta_object_name": "COSMOS 2251 DEB",
        "meta_object_id": "1993-036UB",
        "meta_epoch": "2025-12-22T01:30:43.351200",
        "meta_mean_motion": 14.69348429,
        "meta_eccentricity": 0.00444564,
        "meta_inclination": 74.0354,
        "meta_ra_of_asc_node": 205.5376,
        "meta_arg_of_pericenter": 263.8422,
        "meta_mean_anomaly": 253.3149,
        "meta_ephemeris_type": 0,
        "meta_classification_type": "U",
        "meta_norad_cat_id": 34482,
        "meta_element_set_no": 999,
        "meta_rev_at_epoch": 88324,
        "meta_bstar": 0.0016777378,
        "meta_mean_motion_dot": 0.00010047,
        "meta_mean_motion_ddot": 0,
        "tle_line1": "1 34482U 93036UB  25356.06300175  .00010047  00000+0  16777-2 0  9996",
        "tle_line2": "2 34482  74.0354 205.5376 0044456 263.8422 253.3149 14.69348429883246"
      },
      "geometry": {
        "type": "Point",
        "coordinates": [
          -160.43685450101782,
          -14.32483989693146
        ]
      }
    },
    {
      "type": "Feature",
      "properties": {
        "norad_id": 34544,
        "name": "COSMOS 2251 DEB",
        "group": "cosmos-2251-debris",
        "lat": -27.42953907449958,
        "lon": 178.83298887442803,
        "alt_km": 1183.0861850790416,
        "timestamp": "2025-12-22T23:36:21.111106+00:00",
        "meta_object_name": "COSMOS 2251 DEB",
        "meta_object_id": "1993-036UE",
        "meta_epoch": "2025-12-21T21:30:37.256256",
        "meta_mean_motion": 13.54670498,
        "meta_eccentricity": 0.03836913,
        "meta_inclination": 73.9139,
        "meta_ra_of_asc_node": 189.2056,
        "meta_arg_of_pericenter": 215.9783,
        "meta_mean_anomaly": 210.8549,
        "meta_ephemeris_type": 0,
        "meta_classification_type": "U",
        "meta_norad_cat_id": 34544,
        "meta_element_set_no": 999,
        "meta_rev_at_epoch": 83006,
        "meta_bstar": 0.00039407504,
        "meta_mean_motion_dot": 4.09e-06,
        "meta_mean_motion_ddot": 0,
        "tle_line1": "1 34544U 93036UE  25355.89626454  .00000409  00000+0  39408-3 0  9994",
        "tle_line2": "2 34544  73.9139 189.2056 0383691 215.9783 210.8549 13.54670498830063"
      },
      "geometry": {
        "type": "Point",
        "coordinates": [
          178.83298887442803,
          -27.42953907449958
        ]
      }
    },
    {
      "type": "Feature",
      "properties": {
        "norad_id": 34546,
        "name": "COSMOS 2251 DEB",
        "group": "cosmos-2251-debris",
        "lat": 20.24381736363188,
        "lon": -123.85182544650199,
        "alt_km": 737.0579854092239,
        "timestamp": "2025-12-22T23:36:21.111116+00:00",
        "meta_object_name": "COSMOS 2251 DEB",
        "meta_object_id": "1993-036UG",
        "meta_epoch": "2025-12-22T10:28:49.872576",
        "meta_mean_motion": 14.45448917,
        "meta_eccentricity": 0.00220526,
        "meta_inclination": 74.0296,
        "meta_ra_of_asc_node": 231.1051,
        "meta_arg_of_pericenter": 303.8094,
        "meta_mean_anomaly": 112.4927,
        "meta_ephemeris_type": 0,
        "meta_classification_type": "U",
        "meta_norad_cat_id": 34546,
        "meta_element_set_no": 999,
        "meta_rev_at_epoch": 88166,
        "meta_bstar": 0.00048545391,
        "meta_mean_motion_dot": 1.688e-05,
        "meta_mean_motion_ddot": 0,
        "tle_line1": "1 34546U 93036UG  25356.43668834  .00001688  00000+0  48545-3 0  9997",
        "tle_line2": "2 34546  74.0296 231.1051 0022052 303.8094 112.4927 14.45448917881665"
      },
      "geometry": {
        "type": "Point",
        "coordinates": [
          -123.85182544650199,
          20.24381736363188
        ]
      }
    },
    {
      "type": "Feature",
      "properties": {
        "norad_id": 34547,
        "name": "COSMOS 2251 DEB",
        "group": "cosmos-2251-debris",
        "lat": 51.877067469581924,
        "lon": -120.61754444846244,
        "alt_km": 638.3671106943066,
        "timestamp": "2025-12-22T23:36:21.111126+00:00",
        "meta_object_name": "COSMOS 2251 DEB",
        "meta_object_id": "1993-036UH",
        "meta_epoch": "2025-12-22T06:44:05.516160",
        "meta_mean_motion": 14.72537922,
        "meta_eccentricity": 0.00161723,
        "meta_inclination": 74.0324,
        "meta_ra_of_asc_node": 82.1497,
        "meta_arg_of_pericenter": 160.9302,
        "meta_mean_anomaly": 199.2479,
        "meta_ephemeris_type": 0,
        "meta_classification_type": "U",
        "meta_norad_cat_id": 34547,
        "meta_element_set_no": 999,
        "meta_rev_at_epoch": 88662,
        "meta_bstar": 0.001865478,
        "meta_mean_motion_dot": 0.0001187,
        "meta_mean_motion_ddot": 0,
        "tle_line1": "1 34547U 93036UH  25356.28061940  .00011870  00000+0  18655-2 0  9998",
        "tle_line2": "2 34547  74.0324  82.1497 0016172 160.9302 199.2479 14.72537922886627"
      },
      "geometry": {
        "type": "Point",
        "coordinates": [
          -120.61754444846244,
          51.877067469581924
        ]
      }
    },
    {
      "type": "Feature",
      "properties": {
        "norad_id": 34553,
        "name": "COSMOS 2251 DEB",
        "group": "cosmos-2251-debris",
        "lat": -19.61075004708253,
        "lon": -1.7395613715506395,
        "alt_km": 696.0685103928745,
        "timestamp": "2025-12-22T23:36:21.111137+00:00",
        "meta_object_name": "COSMOS 2251 DEB",
        "meta_object_id": "1993-036UP",
        "meta_epoch": "2025-12-21T12:14:40.588800",
        "meta_mean_motion": 14.57796029,
        "meta_eccentricity": 0.00191028,
        "meta_inclination": 74.0239,
        "meta_ra_of_asc_node": 175.2044,
        "meta_arg_of_pericenter": 251.8858,
        "meta_mean_anomaly": 139.3143,
        "meta_ephemeris_type": 0,
        "meta_classification_type": "U",
        "meta_norad_cat_id": 34553,
        "meta_element_set_no": 999,
        "meta_rev_at_epoch": 88224,
        "meta_bstar": 0.0008261884,
        "meta_mean_motion_dot": 3.761e-05,
        "meta_mean_motion_ddot": 0,
        "tle_line1": "1 34553U 93036UP  25355.51019200  .00003761  00000+0  82619-3 0  9994",
        "tle_line2": "2 34553  74.0239 175.2044 0019102 251.8858 139.3143 14.57796029882248"
      },
      "geometry": {
        "type": "Point",
        "coordinates": [
          -1.7395613715506395,
          -19.61075004708253
        ]
      }
    },
    {
      "type": "Feature",
      "properties": {
        "norad_id": 34554,
        "name": "COSMOS 2251 DEB",
        "group": "cosmos-2251-debris",
        "lat": -59.83892321443781,
        "lon": -109.37458053961208,
        "alt_km": 760.0709974982037,
        "timestamp": "2025-12-22T23:36:21.111148+00:00",
        "meta_object_name": "COSMOS 2251 DEB",
        "meta_object_id": "1993-036UQ",
        "meta_epoch": "2025-12-22T13:02:14.329824",
        "meta_mean_motion": 14.37956918,
        "meta_eccentricity": 0.00234319,
        "meta_inclination": 74.0393,
        "meta_ra_of_asc_node": 280.9403,
        "meta_arg_of_pericenter": 341.3659,
        "meta_mean_anomaly": 196.1572,
        "meta_ephemeris_type": 0,
        "meta_classification_type": "U",
        "meta_norad_cat_id": 34554,
        "meta_element_set_no": 999,
        "meta_rev_at_epoch": 87896,
        "meta_bstar": 0.00027600634,
        "meta_mean_motion_dot": 8.1e-06,
        "meta_mean_motion_ddot": 0,
        "tle_line1": "1 34554U 93036UQ  25356.54322141  .00000810  00000+0  27601-3 0  9992",
        "tle_line2": "2 34554  74.0393 280.9403 0023431 341.3659 196.1572 14.37956918878961"
      },
      "geometry": {
        "type": "Point",
        "coordinates": [
          -109.37458053961208,
          -59.83892321443781
        ]
      }
    }
  ]
}